NORAD_CAT_ID,OBJECT_NAME,OBJECT_TYPE,EPOCH,MEAN_MOTION,ECCENTRICITY,INCLINATION,RA_OF_ASC_NODE,ARG_OF_PERICENTER,MEAN_ANOMALY,BSTAR,MEAN_MOTION_DOT,MEAN_MOTION_DDOT,TLE_LINE0,TLE_LINE1,TLE_LINE2,SEMIMAJOR_AXIS,PERIOD,APOGEE,PERIGEE,DECAYED
51118.0,STARLINK-3394,PAYLOAD,2023-12-13 06:45:51,15.08840305,0.0001452,53.2179,358.6111,111.0897,249.025,9.2772e-05,1.189e-05,0.0,0 STARLINK-3394,1 51118U 22005Q   23347.28184197  .00001189  00000-0  92772-4 0  9994,2 51118  53.2179 358.6111 0001452 111.0897 249.0250 15.08840305106585,6917.879,95.438,540.749,538.74,0.0
51118.0,STARLINK-3394,PAYLOAD,2023-12-14 08:12:02,15.08821308,0.00017,53.2184,353.8516,75.6212,284.4968,0.00082769,0.00012902,0.0,0 STARLINK-3394,1 51118U 22005Q   23348.34169739  .00012902  00000-0  82769-3 0  9996,2 51118  53.2184 353.8516 0001700  75.6212 284.4968 15.08821308106748,6917.938,95.439,540.979,538.626,0.0
51118.0,STARLINK-3394,PAYLOAD,2023-12-15 04:52:02,15.08844785,0.0001784,53.2186,349.9843,66.932,293.186,0.00016246,2.299e-05,0.0,0 STARLINK-3394,1 51118U 22005Q   23349.20280457  .00002299  00000-0  16246-3 0  9998,2 51118  53.2186 349.9843 0001784  66.9320 293.1860 15.08844785106870,6917.866,95.437,540.965,538.497,0.0
51118.0,STARLINK-3394,PAYLOAD,2023-12-15 06:27:25,15.08844605,0.0001353,53.218,349.6864,90.5989,269.5158,5.8236e-05,6.39e-06,0.0,0 STARLINK-3394,1 51118U 22005Q   23349.26904246  .00000639  00000-0  58236-4 0  9995,2 51118  53.2180 349.6864 0001353  90.5989 269.5158 15.08844605105776,6917.866,95.437,540.667,538.795,0.0
51118.0,STARLINK-3394,PAYLOAD,2023-12-15 22:21:17,15.08833986,0.0001325,53.2173,346.7129,89.4871,270.6273,-3.4693e-05,-8.4e-06,0.0,0 STARLINK-3394,1 51118U 22005Q   23349.93144991 -.00000840  00000-0 -34693-4 0  9999,2 51118  53.2173 346.7129 0001325  89.4871 270.6273 15.08833986106981,6917.899,95.438,540.68,538.847,0.0
51118.0,STARLINK-3394,PAYLOAD,2023-12-16 06:18:12,15.08846373,0.0001309,53.2169,345.2261,94.5332,265.581,0.00015388,2.162e-05,0.0,0 STARLINK-3394,1 51118U 22005Q   23350.26264387  .00002162  00000-0  15388-3 0  9995,2 51118  53.2169 345.2261 0001309  94.5332 265.5810 15.08846373107039,6917.861,95.437,540.631,538.82,0.0
51118.0,STARLINK-3394,PAYLOAD,2023-12-17 02:58:13,15.0883128,0.0001384,53.2165,341.3606,97.623,262.492,0.00011719,1.577e-05,0.0,0 STARLINK-3394,1 51118U 22005Q   23351.12377281  .00001577  00000-0  11719-3 0  9992,2 51118  53.2165 341.3606 0001384  97.6230 262.4920 15.08831280107162,6917.907,95.438,540.729,538.815,0.0
51118.0,STARLINK-3394,PAYLOAD,2023-12-17 06:09:00,15.0883683,0.0001386,53.2169,340.7652,85.0964,275.0186,0.00014987,2.098e-05,0.0,0 STARLINK-3394,1 51118U 22005Q   23351.25625161  .00002098  00000-0  14987-3 0  9998,2 51118  53.2169 340.7652 0001386  85.0964 275.0186 15.08836830106076,6917.89,95.438,540.714,538.796,0.0
51118.0,STARLINK-3394,PAYLOAD,2023-12-18 02:49:00,15.08853151,0.0001402,53.2168,336.8962,85.707,274.4082,0.00022545,3.303e-05,0.0,0 STARLINK-3394,1 51118U 22005Q   23352.11736237  .00003303  00000-0  22545-3 0  9990,2 51118  53.2168 336.8962 0001402  85.7070 274.4082 15.08853151107310,6917.84,95.437,540.675,538.735,0.0
51118.0,STARLINK-3394,PAYLOAD,2023-12-18 05:59:46,15.0885996,0.000146,53.2168,336.3021,81.6658,278.4499,0.00031439,4.722e-05,0.0,0 STARLINK-3394,1 51118U 22005Q   23352.24983827  .00004722  00000-0  31439-3 0  9991,2 51118  53.2168 336.3021 0001460  81.6658 278.4499 15.08859960106221,6917.819,95.436,540.694,538.674,0.0
51118.0,STARLINK-3394,PAYLOAD,2023-12-19 04:15:10,15.08834995,0.0001255,53.2174,332.1365,87.7072,272.4064,-5.9632e-05,-1.237e-05,0.0,0 STARLINK-3394,1 51118U 22005Q   23353.17721000 -.00001237  00000-0 -59632-4 0  9993,2 51118  53.2174 332.1365 0001255  87.7072 272.4064 15.08834995107473,6917.896,95.438,540.629,538.892,0.0
51118.0,STARLINK-3394,PAYLOAD,2023-12-19 05:50:34,15.08836014,0.0001253,53.2174,331.8394,89.4646,270.649,-3.1772e-05,-7.93e-06,0.0,0 STARLINK-3394,1 51118U 22005Q   23353.24344995 -.00000793  00000-0 -31772-4 0  9996,2 51118  53.2174 331.8394 0001253  89.4646 270.6490 15.08836014106370,6917.893,95.438,540.624,538.891,0.0
51118.0,STARLINK-3394,PAYLOAD,2023-12-20 04:05:58,15.0883901,0.0001216,53.2167,327.6785,105.252,254.8607,3.7555e-05,3.1e-06,0.0,0 STARLINK-3394,1 51118U 22005Q   23354.17081166  .00000310  00000-0  37555-4 0  9995,2 51118  53.2167 327.6785 0001216 105.2520 254.8607 15.08839010106515,6917.883,95.438,540.59,538.907,0.0
51118.0,STARLINK-3394,PAYLOAD,2023-12-21 03:56:45,15.08851319,0.0001132,53.2163,323.2195,102.1932,257.9187,0.00041726,6.361e-05,0.0,0 STARLINK-3394,1 51118U 22005Q   23355.16441002  .00006361  00000-0  41726-3 0  9990,2 51118  53.2163 323.2195 0001132 102.1932 257.9187 15.08851319107770,6917.846,95.437,540.494,538.928,0.0
51118.0,STARLINK-3394,PAYLOAD,2023-12-21 05:32:08,15.08858264,0.0001107,53.2164,322.9241,96.5487,263.5631,0.00057012,8.802e-05,0.0,0 STARLINK-3394,1 51118U 22005Q   23355.23064834  .00008802  00000-0  57012-3 0  9999,2 51118  53.2164 322.9241 0001107  96.5487 263.5631 15.08858264106673,6917.825,95.436,540.455,538.924,0.0
51118.0,STARLINK-3394,PAYLOAD,2023-12-22 03:47:32,15.08842914,0.0001313,53.2159,318.7614,87.3728,272.7415,0.00018073,2.59e-05,0.0,0 STARLINK-3394,1 51118U 22005Q   23356.15801380  .00002590  00000-0  18073-3 0  9998,2 51118  53.2159 318.7614 0001313  87.3728 272.7415 15.08842914107925,6917.871,95.437,540.645,538.828,0.0
51118.0,STARLINK-3394,PAYLOAD,2023-12-22 05:22:55,15.08848163,0.0001297,53.216,318.4634,96.8853,263.2287,0.0003411,5.146e-05,0.0,0 STARLINK-3394,1 51118U 22005Q   23356.22425242  .00005146  00000-0  34110-3 0  9995,2 51118  53.2160 318.4634 0001297  96.8853 263.2287 15.08848163106823,6917.855,95.437,540.618,538.823,0.0
51118.0,STARLINK-3394,PAYLOAD,2023-12-23 03:38:20,15.08834487,0.0001642,53.2162,314.3052,83.0313,277.0866,0.0010091,0.00015806,0.0,0 STARLINK-3394,1 51118U 22005Q   23357.15162252  .00015806  00000-0  10091-2 0  9992,2 51118  53.2162 314.3052 0001642  83.0313 277.0866 15.08834487108076,6917.897,95.438,540.898,538.626,0.0
51118.0,STARLINK-3394,PAYLOAD,2023-12-23 06:49:06,15.0884181,0.0001864,53.2179,313.6997,78.6757,281.4444,0.001068,0.00016751,0.0,0 STARLINK-3394,1 51118U 22005Q   23357.28410156  .00016751  00000-0  10680-2 0  9999,2 51118  53.2179 313.6997 0001864  78.6757 281.4444 15.08841810106989,6917.875,95.437,541.029,538.45,0.0
51118.0,STARLINK-3394,PAYLOAD,2023-12-24 06:39:52,15.08854153,0.0001886,53.2184,309.236,112.1588,247.9604,0.00068355,0.00010612,0.0,0 STARLINK-3394,1 51118U 22005Q   23358.27769371  .00010612  00000-0  68355-3 0  9998,2 51118  53.2184 309.2360 0001886 112.1588 247.9604 15.08854153108240,6917.837,95.437,541.007,538.397,0.0
51118.0,STARLINK-3394,PAYLOAD,2023-12-24 20:58:21,15.08839866,0.0001976,53.2188,306.561,115.2642,244.8555,7.74e-05,9.44e-06,0.0,0 STARLINK-3394,1 51118U 22005Q   23358.87385833  .00000944  00000-0  77400-4 0  9990,2 51118  53.2188 306.5610 0001976 115.2642 244.8555 15.08839866107229,6917.881,95.438,541.113,538.379,0.0
51118.0,STARLINK-3394,PAYLOAD,2023-12-25 03:19:53,15.0884981,0.0001764,53.2179,305.3776,112.0289,248.0891,0.00038492,5.845e-05,0.0,0 STARLINK-3394,1 51118U 22005Q   23359.13881555  .00005845  00000-0  38492-3 0  9994,2 51118  53.2179 305.3776 0001764 112.0289 248.0891 15.08849810108372,6917.85,95.437,540.936,538.495,0.0
51118.0,STARLINK-3394,PAYLOAD,2023-12-25 06:30:39,15.08854451,0.0001545,53.217,304.7824,109.121,250.995,0.00065469,0.00010151,0.0,0 STARLINK-3394,1 51118U 22005Q   23359.27129428  .00010151  00000-0  65469-3 0  9993,2 51118  53.2170 304.7824 0001545 109.1210 250.9950 15.08854451107282,6917.836,95.437,540.77,538.632,0.0
51118.0,STARLINK-3394,PAYLOAD,2023-12-25 20:49:08,15.08833175,0.0001406,53.2177,302.0987,113.968,246.1459,0.00078383,0.00012206,0.0,0 STARLINK-3394,1 51118U 22005Q   23359.86746226  .00012206  00000-0  78383-3 0  9991,2 51118  53.2177 302.0987 0001406 113.9680 246.1459 15.08833175107371,6917.901,95.438,540.739,538.794,0.0
51118.0,STARLINK-3394,PAYLOAD,2023-12-26 03:10:41,15.08841661,0.0001444,53.2176,300.9113,89.9898,270.126,0.00080178,0.00012496,0.0,0 STARLINK-3394,1 51118U 22005Q   23360.13242275  .00012496  00000-0  80178-3 0  9994,2 51118  53.2176 300.9113 0001444  89.9898 270.1260 15.08841661108527,6917.875,95.437,540.739,538.741,0.0
51118.0,STARLINK-3394,PAYLOAD,2023-12-26 06:21:27,15.08846067,0.0001418,53.2179,300.3216,100.3297,259.7855,0.00058915,9.102e-05,0.0,0 STARLINK-3394,1 51118U 22005Q   23360.26490136  .00009102  00000-0  58915-3 0  9993,2 51118  53.2179 300.3216 0001418 100.3297 259.7855 15.08846067107437,6917.862,95.437,540.708,538.746,0.0
51118.0,STARLINK-3394,PAYLOAD,2023-12-27 03:01:28,15.08850059,0.0001518,53.2174,296.455,92.5982,267.5184,0.00046266,7.085e-05,0.0,0 STARLINK-3394,1 51118U 22005Q   23361.12602050  .00007085  00000-0  46266-3 0  9993,2 51118  53.2174 296.4550 0001518  92.5982 267.5184 15.08850059108677,6917.85,95.437,540.765,538.665,0.0
51118.0,STARLINK-3394,PAYLOAD,2023-12-28 02:52:15,15.08843747,0.0001481,53.2177,291.9949,94.9362,265.18,0.00011423,1.531e-05,0.0,0 STARLINK-3394,1 51118U 22005Q   23362.11962040  .00001531  00000-0  11423-3 0  9998,2 51118  53.2177 291.9949 0001481  94.9362 265.1800 15.08843747108821,6917.869,95.437,540.758,538.709,0.0
51118.0,STARLINK-3394,PAYLOAD,2023-12-28 06:03:01,15.08842575,0.0001486,53.2178,291.4012,93.4515,266.6648,9.5234e-05,1.228e-05,0.0,0 STARLINK-3394,1 51118U 22005Q   23362.25210071  .00001228  00000-0  95234-4 0  9999,2 51118  53.2178 291.4012 0001486  93.4515 266.6648 15.08842575107730,6917.873,95.437,540.766,538.71,0.0
51118.0,STARLINK-3394,PAYLOAD,2023-12-28 20:21:29,15.08839158,0.0001633,53.2169,288.7244,74.7533,285.364,9.7269e-05,1.26e-05,0.0,0 STARLINK-3394,1 51118U 22005Q   23362.84826373  .00001260  00000-0  97269-4 0  9998,2 51118  53.2169 288.7244 0001633  74.7533 285.3640 15.08839158107825,6917.883,95.438,540.878,538.618,0.0
